QIANFAN-86              
1 63172U 25046P   26063.47043688  .00000184  00000+0  26626-3 0  9990
2 63172  88.9764 311.3444 0009265 256.2493 103.7627 13.51001074 58580
QIANFAN-87              
1 63173U 25046Q   26063.44172274  .00000222  00000+0  32539-3 0  9995
2 63173  88.9761 311.4558 0009946 250.5200 109.4877 13.51009567 58512
QIANFAN-88              
1 63174U 25046R   26063.45803644  .00000214  00000+0  31347-3 0  9996
2 63174  88.9763 311.4108 0010353 260.2185  99.7797 13.50997907 58548
QIANFAN-89              
1 63175U 25046S   26063.49523414  .00000208  00000+0  30370-3 0  9993
2 63175  88.9764 311.5960 0014824 249.0811 110.8754 13.51008419 58444
QIANFAN-90              
1 63176U 25046T   26063.45000660  .00000232  00000+0  34020-3 0  9996
2 63176  88.9763 311.5731 0011775 247.2613 112.7294 13.51008288 58457
QIANFAN-91              
1 66033U 25233A   26063.48254287  .00000052  00000+0  61591-4 0  9992
2 66033  88.9928  53.7767 0001916  92.7964 267.3407 13.51004525 19042
QIANFAN-92              
1 66034U 25233B   26063.49071072  .00000029  00000+0  26883-4 0  9992
2 66034  88.9912  53.7648 0001932  85.9513 274.1859 13.51005895 19044
QIANFAN-93              
1 66035U 25233C   26063.49894286  .00000018  00000+0  10010-4 0  9996
2 66035  88.9939  53.7874 0001901  90.7700 269.3669 13.51004833 19049
QIANFAN-94              
1 66036U 25233D   26063.48642969  .00000033  00000+0  32911-4 0  9996
2 66036  88.9935  53.6955 0002035  88.3437 271.7947 13.50991869 19098
QIANFAN-95              
1 66037U 25233E   26063.49470428  .00000063  00000+0  78819-4 0  9997
2 66037  88.9933  53.2410 0002041  93.6995 266.4390 13.51015327 19342
QIANFAN-96              
1 66038U 25233F   26063.44549796  .00000039  00000+0  41125-4 0  9991
2 66038  88.9930  53.7920 0001919  94.6894 265.4476 13.51004637 19035
QIANFAN-97              
1 66039U 25233G   26063.42902500  .00000029  00000+0  26487-4 0  9999
2 66039  88.9933  53.7743 0001931  92.1916 267.9456 13.51004064 19044
QIANFAN-98              
1 66040U 25233H   26063.51126532  .00000029  00000+0  27036-4 0  9995
2 66040  88.9923  53.5082 0002452  85.8006 274.3426 13.51004465 19197
QIANFAN-99              
1 66041U 25233J   26063.44136442  .00000041  00000+0  44246-4 0  9995
2 66041  88.9934  53.7764 0002320  89.5915 270.5502 13.51004773 19042
QIANFAN-100             
1 66042U 25233K   26063.50717044  .00000062  00000+0  77062-4 0  9991
2 66042  88.9945  53.6850 0001904  91.3234 268.8135 13.51005641 19106
QIANFAN-101             
1 66043U 25233L   26063.44554593  .00000743  00000+0  30087-3 0  9994
2 66043  88.9935  52.5895 0016779 122.4076 237.8744 14.26733202 19699
QIANFAN-102             
1 66044U 25233M   26063.45353898  .00000043  00000+0  47908-4 0  9995
2 66044  88.9932  53.6872 0002083  88.7456 271.3934 13.50992440 19098
