[{"OBJECT_NAME":"QIANFAN-86","OBJECT_ID":"2025-046P","EPOCH":"2026-03-04T11:17:25.746432","MEAN_MOTION":13.51001074,"ECCENTRICITY":0.0009265,"INCLINATION":88.9764,"RA_OF_ASC_NODE":311.3444,"ARG_OF_PERICENTER":256.2493,"MEAN_ANOMALY":103.7627,"EPHEMERIS_TYPE":0,"CLASSIFICATION_TYPE":"U","NORAD_CAT_ID":63172,"ELEMENT_SET_NO":999,"REV_AT_EPOCH":5858,"BSTAR":0.00026626,"MEAN_MOTION_DOT":1.84e-6,"MEAN_MOTION_DDOT":0},{"OBJECT_NAME":"QIANFAN-87","OBJECT_ID":"2025-046Q","EPOCH":"2026-03-04T10:36:04.844736","MEAN_MOTION":13.51009567,"ECCENTRICITY":0.0009946,"INCLINATION":88.9761,"RA_OF_ASC_NODE":311.4558,"ARG_OF_PERICENTER":250.52,"MEAN_ANOMALY":109.4877,"EPHEMERIS_TYPE":0,"CLASSIFICATION_TYPE":"U","NORAD_CAT_ID":63173,"ELEMENT_SET_NO":999,"REV_AT_EPOCH":5851,"BSTAR":0.00032539,"MEAN_MOTION_DOT":2.22e-6,"MEAN_MOTION_DDOT":0},{"OBJECT_NAME":"QIANFAN-88","OBJECT_ID":"2025-046R","EPOCH":"2026-03-04T10:59:34.348416","MEAN_MOTION":13.50997907,"ECCENTRICITY":0.0010353,"INCLINATION":88.9763,"RA_OF_ASC_NODE":311.4108,"ARG_OF_PERICENTER":260.2185,"MEAN_ANOMALY":99.7797,"EPHEMERIS_TYPE":0,"CLASSIFICATION_TYPE":"U","NORAD_CAT_ID":63174,"ELEMENT_SET_NO":999,"REV_AT_EPOCH":5854,"BSTAR":0.00031347,"MEAN_MOTION_DOT":2.14e-6,"MEAN_MOTION_DDOT":0},{"OBJECT_NAME":"QIANFAN-89","OBJECT_ID":"2025-046S","EPOCH":"2026-03-04T11:53:08.229696","MEAN_MOTION":13.51008419,"ECCENTRICITY":0.0014824,"INCLINATION":88.9764,"RA_OF_ASC_NODE":311.596,"ARG_OF_PERICENTER":249.0811,"MEAN_ANOMALY":110.8754,"EPHEMERIS_TYPE":0,"CLASSIFICATION_TYPE":"U","NORAD_CAT_ID":63175,"ELEMENT_SET_NO":999,"REV_AT_EPOCH":5844,"BSTAR":0.0003037,"MEAN_MOTION_DOT":2.08e-6,"MEAN_MOTION_DDOT":0},{"OBJECT_NAME":"QIANFAN-90","OBJECT_ID":"2025-046T","EPOCH":"2026-03-04T10:48:00.570240","MEAN_MOTION":13.51008288,"ECCENTRICITY":0.0011775,"INCLINATION":88.9763,"RA_OF_ASC_NODE":311.5731,"ARG_OF_PERICENTER":247.2613,"MEAN_ANOMALY":112.7294,"EPHEMERIS_TYPE":0,"CLASSIFICATION_TYPE":"U","NORAD_CAT_ID":63176,"ELEMENT_SET_NO":999,"REV_AT_EPOCH":5845,"BSTAR":0.0003402,"MEAN_MOTION_DOT":2.32e-6,"MEAN_MOTION_DDOT":0},{"OBJECT_NAME":"QIANFAN-91","OBJECT_ID":"2025-233A","EPOCH":"2026-03-04T11:34:51.703968","MEAN_MOTION":13.51004525,"ECCENTRICITY":0.0001916,"INCLINATION":88.9928,"RA_OF_ASC_NODE":53.7767,"ARG_OF_PERICENTER":92.7964,"MEAN_ANOMALY":267.3407,"EPHEMERIS_TYPE":0,"CLASSIFICATION_TYPE":"U","NORAD_CAT_ID":66033,"ELEMENT_SET_NO":999,"REV_AT_EPOCH":1904,"BSTAR":6.1591e-5,"MEAN_MOTION_DOT":5.2e-7,"MEAN_MOTION_DDOT":0},{"OBJECT_NAME":"QIANFAN-92","OBJECT_ID":"2025-233B","EPOCH":"2026-03-04T11:46:37.406208","MEAN_MOTION":13.51005895,"ECCENTRICITY":0.0001932,"INCLINATION":88.9912,"RA_OF_ASC_NODE":53.7648,"ARG_OF_PERICENTER":85.9513,"MEAN_ANOMALY":274.1859,"EPHEMERIS_TYPE":0,"CLASSIFICATION_TYPE":"U","NORAD_CAT_ID":66034,"ELEMENT_SET_NO":999,"REV_AT_EPOCH":1904,"BSTAR":2.6883e-5,"MEAN_MOTION_DOT":2.9e-7,"MEAN_MOTION_DDOT":0},{"OBJECT_NAME":"QIANFAN-93","OBJECT_ID":"2025-233C","EPOCH":"2026-03-04T11:58:28.663104","MEAN_MOTION":13.51004833,"ECCENTRICITY":0.0001901,"INCLINATION":88.9939,"RA_OF_ASC_NODE":53.7874,"ARG_OF_PERICENTER":90.77,"MEAN_ANOMALY":269.3669,"EPHEMERIS_TYPE":0,"CLASSIFICATION_TYPE":"U","NORAD_CAT_ID":66035,"ELEMENT_SET_NO":999,"REV_AT_EPOCH":1904,"BSTAR":1.001e-5,"MEAN_MOTION_DOT":1.8e-7,"MEAN_MOTION_DDOT":0},{"OBJECT_NAME":"QIANFAN-94","OBJECT_ID":"2025-233D","EPOCH":"2026-03-04T11:40:27.525216","MEAN_MOTION":13.50991869,"ECCENTRICITY":0.0002035,"INCLINATION":88.9935,"RA_OF_ASC_NODE":53.6955,"ARG_OF_PERICENTER":88.3437,"MEAN_ANOMALY":271.7947,"EPHEMERIS_TYPE":0,"CLASSIFICATION_TYPE":"U","NORAD_CAT_ID":66036,"ELEMENT_SET_NO":999,"REV_AT_EPOCH":1909,"BSTAR":3.2911e-5,"MEAN_MOTION_DOT":3.3e-7,"MEAN_MOTION_DDOT":0},{"OBJECT_NAME":"QIANFAN-95","OBJECT_ID":"2025-233E","EPOCH":"2026-03-04T11:52:22.449792","MEAN_MOTION":13.51015327,"ECCENTRICITY":0.0002041,"INCLINATION":88.9933,"RA_OF_ASC_NODE":53.241,"ARG_OF_PERICENTER":93.6995,"MEAN_ANOMALY":266.439,"EPHEMERIS_TYPE":0,"CLASSIFICATION_TYPE":"U","NORAD_CAT_ID":66037,"ELEMENT_SET_NO":999,"REV_AT_EPOCH":1934,"BSTAR":7.8819e-5,"MEAN_MOTION_DOT":6.3e-7,"MEAN_MOTION_DDOT":0},{"OBJECT_NAME":"QIANFAN-96","OBJECT_ID":"2025-233F","EPOCH":"2026-03-04T10:41:31.023744","MEAN_MOTION":13.51004637,"ECCENTRICITY":0.0001919,"INCLINATION":88.993,"RA_OF_ASC_NODE":53.792,"ARG_OF_PERICENTER":94.6894,"MEAN_ANOMALY":265.4476,"EPHEMERIS_TYPE":0,"CLASSIFICATION_TYPE":"U","NORAD_CAT_ID":66038,"ELEMENT_SET_NO":999,"REV_AT_EPOCH":1903,"BSTAR":4.1125e-5,"MEAN_MOTION_DOT":3.9e-7,"MEAN_MOTION_DDOT":0},{"OBJECT_NAME":"QIANFAN-97","OBJECT_ID":"2025-233G","EPOCH":"2026-03-04T10:17:47.760000","MEAN_MOTION":13.51004064,"ECCENTRICITY":0.0001931,"INCLINATION":88.9933,"RA_OF_ASC_NODE":53.7743,"ARG_OF_PERICENTER":92.1916,"MEAN_ANOMALY":267.9456,"EPHEMERIS_TYPE":0,"CLASSIFICATION_TYPE":"U","NORAD_CAT_ID":66039,"ELEMENT_SET_NO":999,"REV_AT_EPOCH":1904,"BSTAR":2.6487e-5,"MEAN_MOTION_DOT":2.9e-7,"MEAN_MOTION_DDOT":0},{"OBJECT_NAME":"QIANFAN-98","OBJECT_ID":"2025-233H","EPOCH":"2026-03-04T12:16:13.323648","MEAN_MOTION":13.51004465,"ECCENTRICITY":0.0002452,"INCLINATION":88.9923,"RA_OF_ASC_NODE":53.5082,"ARG_OF_PERICENTER":85.8006,"MEAN_ANOMALY":274.3426,"EPHEMERIS_TYPE":0,"CLASSIFICATION_TYPE":"U","NORAD_CAT_ID":66040,"ELEMENT_SET_NO":999,"REV_AT_EPOCH":1919,"BSTAR":2.7036e-5,"MEAN_MOTION_DOT":2.9e-7,"MEAN_MOTION_DDOT":0},{"OBJECT_NAME":"QIANFAN-99","OBJECT_ID":"2025-233J","EPOCH":"2026-03-04T10:35:33.885888","MEAN_MOTION":13.51004773,"ECCENTRICITY":0.000232,"INCLINATION":88.9934,"RA_OF_ASC_NODE":53.7764,"ARG_OF_PERICENTER":89.5915,"MEAN_ANOMALY":270.5502,"EPHEMERIS_TYPE":0,"CLASSIFICATION_TYPE":"U","NORAD_CAT_ID":66041,"ELEMENT_SET_NO":999,"REV_AT_EPOCH":1904,"BSTAR":4.4246e-5,"MEAN_MOTION_DOT":4.1e-7,"MEAN_MOTION_DDOT":0},{"OBJECT_NAME":"QIANFAN-100","OBJECT_ID":"2025-233K","EPOCH":"2026-03-04T12:10:19.526016","MEAN_MOTION":13.51005641,"ECCENTRICITY":0.0001904,"INCLINATION":88.9945,"RA_OF_ASC_NODE":53.685,"ARG_OF_PERICENTER":91.3234,"MEAN_ANOMALY":268.8135,"EPHEMERIS_TYPE":0,"CLASSIFICATION_TYPE":"U","NORAD_CAT_ID":66042,"ELEMENT_SET_NO":999,"REV_AT_EPOCH":1910,"BSTAR":7.7062e-5,"MEAN_MOTION_DOT":6.2e-7,"MEAN_MOTION_DDOT":0},{"OBJECT_NAME":"QIANFAN-101","OBJECT_ID":"2025-233L","EPOCH":"2026-03-04T10:41:35.168352","MEAN_MOTION":14.26733202,"ECCENTRICITY":0.0016779,"INCLINATION":88.9935,"RA_OF_ASC_NODE":52.5895,"ARG_OF_PERICENTER":122.4076,"MEAN_ANOMALY":237.8744,"EPHEMERIS_TYPE":0,"CLASSIFICATION_TYPE":"U","NORAD_CAT_ID":66043,"ELEMENT_SET_NO":999,"REV_AT_EPOCH":1969,"BSTAR":0.00030087,"MEAN_MOTION_DOT":7.43e-6,"MEAN_MOTION_DDOT":0},{"OBJECT_NAME":"QIANFAN-102","OBJECT_ID":"2025-233M","EPOCH":"2026-03-04T10:53:05.767872","MEAN_MOTION":13.5099244,"ECCENTRICITY":0.0002083,"INCLINATION":88.9932,"RA_OF_ASC_NODE":53.6872,"ARG_OF_PERICENTER":88.7456,"MEAN_ANOMALY":271.3934,"EPHEMERIS_TYPE":0,"CLASSIFICATION_TYPE":"U","NORAD_CAT_ID":66044,"ELEMENT_SET_NO":999,"REV_AT_EPOCH":1909,"BSTAR":4.7908e-5,"MEAN_MOTION_DOT":4.3e-7,"MEAN_MOTION_DDOT":0}]
